[{"OBJECT_NAME":"HAWK-11B","OBJECT_ID":"2024-247C","EPOCH":"2026-03-09T10:44:06.809856","MEAN_MOTION":15.2884707,"ECCENTRICITY":0.00046902,"INCLINATION":45.0161,"RA_OF_ASC_NODE":115.761,"ARG_OF_PERICENTER":333.0326,"MEAN_ANOMALY":27.0314,"EPHEMERIS_TYPE":0,"CLASSIFICATION_TYPE":"U","NORAD_CAT_ID":62379,"ELEMENT_SET_NO":999,"REV_AT_EPOCH":6773,"BSTAR":0.00032841927,"MEAN_MOTION_DOT":9.093e-5,"MEAN_MOTION_DDOT":0},{"OBJECT_NAME":"STARLINK-36450","OBJECT_ID":"2026-002N","EPOCH":"2026-03-09T10:05:21.811776","MEAN_MOTION":15.27591291,"ECCENTRICITY":8.244e-5,"INCLINATION":43.0057,"RA_OF_ASC_NODE":327.1425,"ARG_OF_PERICENTER":300.9814,"MEAN_ANOMALY":59.0957,"EPHEMERIS_TYPE":0,"CLASSIFICATION_TYPE":"U","NORAD_CAT_ID":67317,"ELEMENT_SET_NO":999,"REV_AT_EPOCH":1119,"BSTAR":0.0011516158,"MEAN_MOTION_DOT":0.00031574,"MEAN_MOTION_DDOT":0}]
